NORAD_CAT_ID,OBJECT_NAME,OBJECT_TYPE,EPOCH,MEAN_MOTION,ECCENTRICITY,INCLINATION,RA_OF_ASC_NODE,ARG_OF_PERICENTER,MEAN_ANOMALY,BSTAR,MEAN_MOTION_DOT,MEAN_MOTION_DDOT,TLE_LINE0,TLE_LINE1,TLE_LINE2,SEMIMAJOR_AXIS,PERIOD,APOGEE,PERIGEE,DECAYED
52703.0,STARLINK-4020,PAYLOAD,2022-08-23 12:00:00,15.10014444,0.0001988,53.2171,183.9602,40.84,87.839,-0.068974,-0.01051191,0.0,0 STARLINK-4020,1 52703U 22053AZ  22235.50001157 -.01051191  00000-0 -68974-1 0  9997,2 52703  53.2171 183.9602 0001988  40.8400  87.8390 15.10014444 15510,6914.293000000002,95.363,537.5319999999998,534.783,0.0
52703.0,STARLINK-4020,PAYLOAD,2022-08-23 14:00:01,15.09762069,0.0001940999999999,53.2174,183.5846,45.538,176.3783,-0.058345,-0.00883746,0.0,0 STARLINK-4020,1 52703U 22053AZ  22235.58334491 -.00883746  00000-0 -58345-1 0  9994,2 52703  53.2174 183.5846 0001941  45.5380 176.3783 15.09762069  1300,6915.063,95.379,538.271,535.586,0.0
52703.0,STARLINK-4020,PAYLOAD,2022-08-23 20:00:01,15.09172006,0.0002049,53.2175,182.4602,43.4818,97.7609,-0.028655,-0.0043361,0.0,0 STARLINK-4020,1 52703U 22053AZ  22235.83334491 -.00433610  00000-0 -28655-1 0  9994,2 52703  53.2175 182.4602 0002049  43.4818  97.7609 15.09172006 15564,6916.866,95.417,540.148,537.313,0.0
52703.0,STARLINK-4020,PAYLOAD,2022-08-23 22:00:01,15.09033974,0.0002081,53.2176,182.0864,42.794,191.513,-0.018632,-0.00286746,0.0,0 STARLINK-4020,1 52703U 22053AZ  22235.91668981 -.00286746  00000-0 -18632-1 0  9997,2 52703  53.2176 182.0864 0002081  42.7940 191.5130 15.09033974  1304,6917.288000000001,95.425,540.592,537.7130000000002,0.0
52703.0,STARLINK-4020,PAYLOAD,2022-08-24 04:00:00,15.09105723,0.0001932,53.2172,180.9673,52.749,100.1274,-0.023173,-0.0035395,0.0,0 STARLINK-4020,1 52703U 22053AZ  22236.16667824 -.00353950  00000-0 -23173-1 0  9998,2 52703  53.2172 180.9673 0001932  52.7490 100.1274 15.09105723 15616,6917.068,95.421,540.27,537.597,0.0
52703.0,STARLINK-4020,PAYLOAD,2022-08-24 14:00:01,15.08860506,0.000171,53.2162,179.1009,41.2747,216.1079,-0.00061842,-0.00010122,0.0,0 STARLINK-4020,1 52703U 22053AZ  22236.58334491 -.00010122  00000-0 -61842-3 0  9993,2 52703  53.2162 179.1009 0001710  41.2747 216.1079 15.08860506 15673,6917.818,95.436,540.866,538.5,0.0
52703.0,STARLINK-4020,PAYLOAD,2022-08-24 22:00:00,15.08875461,0.0001678,53.2164,177.6047,44.9238,224.0713,-0.0007343,-0.00011967,0.0,0 STARLINK-4020,1 52703U 22053AZ  22236.91667824 -.00011967  00000-0 -73430-3 0  9993,2 52703  53.2164 177.6047 0001678  44.9238 224.0713 15.08875461  1302,6917.772,95.435,540.798,538.476,0.0
52703.0,STARLINK-4020,PAYLOAD,2022-08-25 12:00:00,15.08883882,0.0001810999999999,53.216,174.9863,43.0144,156.3229,-0.0023252,-0.00037148,0.0,0 STARLINK-4020,1 52703U 22053AZ  22237.50001157 -.00037148  00000-0 -23252-2 0  9995,2 52703  53.2160 174.9863 0001811  43.0144 156.3229 15.08883882 15815,6917.746,95.435,540.864,538.3580000000002,0.0
52703.0,STARLINK-4020,PAYLOAD,2022-08-25 14:00:01,15.08872046,0.000176,53.2162,174.6118,44.8474,247.4023,-0.0012474,-0.00020103,0.0,0 STARLINK-4020,1 52703U 22053AZ  22237.58334491 -.00020103  00000-0 -12474-2 0  9990,2 52703  53.2162 174.6118 0001760  44.8474 247.4023 15.08872046  1308,6917.781999999997,95.436,540.865,538.43,0.0
52703.0,STARLINK-4020,PAYLOAD,2022-08-25 22:00:00,15.0887054,0.0001817,53.2163,173.1157,49.5841,254.2913,-0.002522,-0.00040236,0.0,0 STARLINK-4020,1 52703U 22053AZ  22237.91667824 -.00040236  00000-0 -25220-2 0  9998,2 52703  53.2163 173.1157 0001817  49.5841 254.2913 15.08870540  1300,6917.7869999999975,95.436,540.909,538.395,0.0
52703.0,STARLINK-4020,PAYLOAD,2022-08-26 06:00:00,15.08822508,0.0002029,53.2161,171.6208,45.5949,269.8984,0.0025961,0.00041252,0.0,0 STARLINK-4020,1 52703U 22053AZ  22238.25001157  .00041252  00000-0  25961-2 0  9996,2 52703  53.2161 171.6208 0002029  45.5949 269.8984 15.08822508 15923,6917.934,95.439,541.203,538.395,0.0
52703.0,STARLINK-4020,PAYLOAD,2022-08-26 14:00:01,15.08839734,0.0001874,53.2161,170.1227,49.9661,277.1872,0.00054437,8.386e-05,0.0,0 STARLINK-4020,1 52703U 22053AZ  22238.58335648  .00008386  00000-0  54437-3 0  9999,2 52703  53.2161 170.1227 0001874  49.9661 277.1872 15.08839734  1308,6917.880999999999,95.438,541.043,538.45,0.0
52703.0,STARLINK-4020,PAYLOAD,2022-08-26 20:00:01,15.08861041,0.0001857,53.2161,169.0005,53.6989,192.0851,-0.00090428,-0.00014659,0.0,0 STARLINK-4020,1 52703U 22053AZ  22238.83334491 -.00014659  00000-0 -90428-3 0  9994,2 52703  53.2161 169.0005 0001857  53.6989 192.0851 15.08861041 16017,6917.816,95.436,540.966,538.396,0.0
52703.0,STARLINK-4020,PAYLOAD,2022-08-26 22:00:00,15.08879018,0.0001869,53.2162,168.6269,51.4141,287.2688,-0.0039423,-0.00062553,0.0,0 STARLINK-4020,1 52703U 22053AZ  22238.91667824 -.00062553  00000-0 -39423-2 0  9995,2 52703  53.2162 168.6269 0001869  51.4141 287.2688 15.08879018  1308,6917.761,95.435,540.919,538.3330000000002,0.0
52703.0,STARLINK-4020,PAYLOAD,2022-08-27 14:00:01,15.08820268,0.0001847,53.216,165.6338,50.0319,311.8555,0.0012024,0.0001889,0.0,0 STARLINK-4020,1 52703U 22053AZ  22239.58334491  .00018890  00000-0  12024-2 0  9991,2 52703  53.2160 165.6338 0001847  50.0319 311.8555 15.08820268  1308,6917.941,95.439,541.0830000000002,538.528,0.0
52703.0,STARLINK-4020,PAYLOAD,2022-08-27 22:00:00,15.08854587,0.0001925,53.2161,164.1381,51.422,322.0412,-0.0014876,-0.00023895,0.0,0 STARLINK-4020,1 52703U 22053AZ  22239.91667824 -.00023895  00000-0 -14876-2 0  9997,2 52703  53.2161 164.1381 0001925  51.4220 322.0412 15.08854587  1301,6917.8359999999975,95.437,541.0319999999998,538.369,0.0
52703.0,STARLINK-4020,PAYLOAD,2022-08-28 06:00:00,15.08825408,0.0002061999999999,53.2159,162.6429,46.4872,338.5858,0.0030169,0.00048035,0.0,0 STARLINK-4020,1 52703U 22053AZ  22240.25001157  .00048035  00000-0  30169-2 0  9991,2 52703  53.2159 162.6429 0002062  46.4872 338.5858 15.08825408 16227,6917.925,95.438,541.216,538.364,0.0
52703.0,STARLINK-4020,PAYLOAD,2022-08-28 14:00:01,15.08843532,0.0001896999999999,53.2161,161.1447,50.6919,345.9868,0.00092846,0.00014521,0.0,0 STARLINK-4020,1 52703U 22053AZ  22240.58334491  .00014521  00000-0  92846-3 0  9991,2 52703  53.2161 161.1447 0001897  50.6919 345.9868 15.08843532  1302,6917.87,95.437,541.047,538.422,0.0
52703.0,STARLINK-4020,PAYLOAD,2022-08-28 20:00:01,15.08871071,0.0001915,53.2162,160.0225,52.5153,262.8606,-0.0033452,-0.0005317999999999,0.0,0 STARLINK-4020,1 52703U 22053AZ  22240.83334491 -.00053180  00000-0 -33452-2 0  9992,2 52703  53.2162 160.0225 0001915  52.5153 262.8606 15.08871071 16310,6917.785,95.436,540.975,538.326,0.0
52703.0,STARLINK-4020,PAYLOAD,2022-08-28 22:00:00,15.0886198,0.0001953,53.2161,159.649,50.5547,357.7279,-0.0033244,-0.00052841,0.0,0 STARLINK-4020,1 52703U 22053AZ  22240.91667824 -.00052841  00000-0 -33244-2 0  9992,2 52703  53.2161 159.6490 0001953  50.5547 357.7279 15.08861980  1305,6917.813,95.436,541.029,538.327,0.0
52703.0,STARLINK-4020,PAYLOAD,2022-08-29 14:00:01,15.08797049,0.0001837,53.2163,156.6556,47.993,23.4776,0.0016813,0.0002654,0.0,0 STARLINK-4020,1 52703U 22053AZ  22241.58334491  .00026540  00000-0  16813-2 0  9995,2 52703  53.2163 156.6556 0001837  47.9930  23.4776 15.08797049 16426,6918.012,95.44,541.148,538.606,0.0
52703.0,STARLINK-4020,PAYLOAD,2022-08-29 22:00:00,15.0883405,0.0001964,53.2163,155.1601,48.4268,34.5954,-0.0015887,-0.0002548,0.0,0 STARLINK-4020,1 52703U 22053AZ  22241.91667824 -.00025480  00000-0 -15887-2 0  9995,2 52703  53.2163 155.1601 0001964  48.4268  34.5954 15.08834050  1308,6917.899,95.438,541.122,538.405,0.0
52703.0,STARLINK-4020,PAYLOAD,2022-08-30 14:00:01,15.08809759,0.0001911999999999,53.2164,152.1666,49.294,56.8855,0.0026456999999999,0.00042035,0.0,0 STARLINK-4020,1 52703U 22053AZ  22242.58334491  .00042035  00000-0  26457-2 0  9998,2 52703  53.2164 152.1666 0001912  49.2940  56.8855 15.08809759 16587,6917.973000000001,95.439,541.161,538.515,0.0
52703.0,STARLINK-4020,PAYLOAD,2022-08-30 22:00:00,15.08853713,0.0002041999999999,53.2164,150.671,49.7651,67.9888,-0.0014481,-0.0002327,0.0,0 STARLINK-4020,1 52703U 22053AZ  22242.91667824 -.00023270  00000-0 -14481-2 0  9990,2 52703  53.2164 150.6710 0002042  49.7651  67.9888 15.08853713  1301,6917.8380000000025,95.437,541.116,538.2909999999998,0.0
52703.0,STARLINK-4020,PAYLOAD,2022-08-31 14:00:01,15.08839415,0.0001943,53.2162,147.6773,50.6173,90.3409,0.00067982,0.00010548,0.0,0 STARLINK-4020,1 52703U 22053AZ  22243.58334491  .00010548  00000-0  67982-3 0  9992,2 52703  53.2162 147.6773 0001943  50.6173  90.3409 15.08839415  1305,6917.882,95.438,541.091,538.403,0.0
52703.0,STARLINK-4020,PAYLOAD,2022-08-31 20:00:01,15.08858878,0.0001959,53.2164,146.5556,51.2878,8.3664,-0.0025334,-0.00040403,0.0,0 STARLINK-4020,1 52703U 22053AZ  22243.83334491 -.00040403  00000-0 -25334-2 0  9999,2 52703  53.2164 146.5556 0001959  51.2878   8.3664 15.08858878 16762,6917.823,95.436,541.043,538.332,0.0
52703.0,STARLINK-4020,PAYLOAD,2022-08-31 22:00:00,15.08849162,0.0001991,53.2163,146.1819,49.13,103.428,-0.0020282,-0.00032431,0.0,0 STARLINK-4020,1 52703U 22053AZ  22243.91667824 -.00032431  00000-0 -20282-2 0  9996,2 52703  53.2163 146.1819 0001991  49.1300 103.4280 15.08849162  1302,6917.852,95.437,541.095,538.34,0.0
52703.0,STARLINK-4020,PAYLOAD,2022-09-01 12:00:00,15.08830585,0.0001908,53.2161,143.5624,50.9577,31.8876,0.0011057,0.00017349,0.0,0 STARLINK-4020,1 52703U 22053AZ  22244.50001157  .00017349  00000-0  11057-2 0  9992,2 52703  53.2161 143.5624 0001908  50.9577  31.8876 15.08830585 16860,6917.909000000002,95.438,541.094,538.4540000000002,0.0
52703.0,STARLINK-4020,PAYLOAD,2022-09-01 14:00:01,15.08820262,0.0001893,53.2159,143.1879,51.6199,124.1898,0.0028655,0.00045587,0.0,0 STARLINK-4020,1 52703U 22053AZ  22244.58335648  .00045587  00000-0  28655-2 0  9992,2 52703  53.2159 143.1879 0001893  51.6199 124.1898 15.08820262  1300,6917.941,95.439,541.115,538.496,0.0
